[{"OBJECT_NAME":"KUIPER-00012","OBJECT_ID":"2025-088E","EPOCH":"2026-03-09T07:27:05.838336","MEAN_MOTION":14.79920319,"ECCENTRICITY":5.889e-5,"INCLINATION":51.9012,"RA_OF_ASC_NODE":77.2556,"ARG_OF_PERICENTER":63.3583,"MEAN_ANOMALY":296.744,"EPHEMERIS_TYPE":0,"CLASSIFICATION_TYPE":"U","NORAD_CAT_ID":63728,"ELEMENT_SET_NO":999,"REV_AT_EPOCH":4786,"BSTAR":0.00051078078,"MEAN_MOTION_DOT":3.674e-5,"MEAN_MOTION_DDOT":0},{"OBJECT_NAME":"FENGYUN 1C DEB","OBJECT_ID":"1999-025BYR","EPOCH":"2026-03-09T23:07:58.594368","MEAN_MOTION":14.406981,"ECCENTRICITY":0.01903045,"INCLINATION":98.317,"RA_OF_ASC_NODE":70.9971,"ARG_OF_PERICENTER":10.2393,"MEAN_ANOMALY":350.2588,"EPHEMERIS_TYPE":0,"CLASSIFICATION_TYPE":"U","NORAD_CAT_ID":31550,"ELEMENT_SET_NO":999,"REV_AT_EPOCH":66710,"BSTAR":0.0010170839,"MEAN_MOTION_DOT":3.98e-5,"MEAN_MOTION_DDOT":0}]
